KUIPER-00232            
1 67148U 25301R   26008.17518967  .00016858  00000+0  46673-3 0  9993
2 67148  51.8742 357.4265 0002293  82.8872 277.2376 15.37094744  4437
KUIPER-00241            
1 67149U 25301S   26008.11684932  .00015595  00000+0  43811-3 0  9992
2 67149  51.8740 357.7830 0002852 126.9976 233.1272 15.36699650  4750
KUIPER-00245            
1 67150U 25301T   26008.16668980 -.00908507  00000+0 -32488-1 0  9996
2 67150  51.8751 357.7153 0007228 165.2615  16.9484 15.31053333  3916
KUIPER-00246            
1 67151U 25301U   26008.12109427  .00027068  00000+0  75750-3 0  9992
2 67151  51.8736 357.8130 0003988 149.2011 210.9210 15.36446959  4444
KUIPER-00247            
1 67152U 25301V   26008.15036441  .00018608  00000+0  55864-3 0  9995
2 67152  51.8650 357.9917 0011171 193.0853 166.9844 15.34425216  4420
KUIPER-00248            
1 67153U 25301W   26008.13956138  .00017862  00000+0  52455-3 0  9992
2 67153  51.8689 357.9284 0008407 177.9165 182.1857 15.35176499  4594
KUIPER-00249            
1 67154U 25301X   26008.13693163  .00019738  00000+0  57185-3 0  9998
2 67154  51.8663 357.9092 0008452 176.7493 183.3549 15.35532069  4427
KUIPER-00250            
1 67155U 25301Y   26008.19436200  .00027304  00000+0  77339-3 0  9993
2 67155  51.8720 357.5526 0006686 166.1460 193.9710 15.36052080  4466
